{
  "norad_id": 62275,
  "name": "STARLINK-11495 [DTC]",
  "history": [
    {
      "epoch": "2026-03-28T22:42:05.252832Z",
      "apogee_km": 358.94011540570864,
      "perigee_km": 353.2052624346243,
      "latitude_deg": -8.392646225449883e-06,
      "longitude_deg": 134.29655250880685,
      "height_km": 356.2286871700523,
      "semi_major_axis_km": 6734.209688920167,
      "eccentricity": 0.0004258,
      "inclination_deg": 43.0001,
      "raan_deg": 301.1775,
      "arg_perigee_deg": 262.3483,
      "mean_anomaly_deg": 97.6901,
      "mean_motion_rev_day": 15.70987788
    },
    {
      "epoch": "2026-03-28T22:42:05.253696Z",
      "apogee_km": 358.9402500899032,
      "perigee_km": 353.2051277504306,
      "latitude_deg": -6.834399075755546e-06,
      "longitude_deg": 134.29655056057337,
      "height_km": 356.22870510081157,
      "semi_major_axis_km": 6734.209688920167,
      "eccentricity": 0.00042582,
      "inclination_deg": 43.0001,
      "raan_deg": 301.1775,
      "arg_perigee_deg": 262.3483,
      "mean_anomaly_deg": 97.6901,
      "mean_motion_rev_day": 15.70987788
    },
    {
      "epoch": "2026-03-30T00:38:37.057920Z",
      "apogee_km": 357.355162954088,
      "perigee_km": 355.01067681717905,
      "latitude_deg": -2.320816033516084e-05,
      "longitude_deg": 97.58280904332051,
      "height_km": 355.71589383620085,
      "semi_major_axis_km": 6734.319919885634,
      "eccentricity": 0.00017407,
      "inclination_deg": 43.0005,
      "raan_deg": 294.6617,
      "arg_perigee_deg": 281.8042,
      "mean_anomaly_deg": 78.263,
      "mean_motion_rev_day": 15.70949216
    },
    {
      "epoch": "2026-03-30T14:22:39.235872Z",
      "apogee_km": 357.57890945493546,
      "perigee_km": 355.0134944709798,
      "latitude_deg": 5.550382711500147e-06,
      "longitude_deg": -112.43936723379372,
      "height_km": 356.26415237571297,
      "semi_major_axis_km": 6734.433201962957,
      "eccentricity": 0.00019047,
      "inclination_deg": 42.9991,
      "raan_deg": 291.2126,
      "arg_perigee_deg": 261.2443,
      "mean_anomaly_deg": 98.8209,
      "mean_motion_rev_day": 15.70909578
    },
    {
      "epoch": "2026-03-30T22:00:27.376992Z",
      "apogee_km": 358.2168660549205,
      "perigee_km": 354.45647064798595,
      "latitude_deg": 1.6158472988986963e-05,
      "longitude_deg": 130.88060186844513,
      "height_km": 355.68949108503404,
      "semi_major_axis_km": 6734.473668351453,
      "eccentricity": 0.00027919,
      "inclination_deg": 43.0025,
      "raan_deg": 289.2965,
      "arg_perigee_deg": 282.9372,
      "mean_anomaly_deg": 77.1184,
      "mean_motion_rev_day": 15.70895419
    },
    {
      "epoch": "2026-03-31T05:38:16.261152Z",
      "apogee_km": 356.735214169692,
      "perigee_km": 355.8624312870661,
      "latitude_deg": 1.4604022714749457e-05,
      "longitude_deg": 14.195653587148861,
      "height_km": 355.6375577026194,
      "semi_major_axis_km": 6734.435822728378,
      "eccentricity": 6.48e-05,
      "inclination_deg": 42.9982,
      "raan_deg": 287.3786,
      "arg_perigee_deg": 7.972,
      "mean_anomaly_deg": 352.1158,
      "mean_motion_rev_day": 15.70908661
    },
    {
      "epoch": "2026-04-01T15:12:34.036992Z",
      "apogee_km": 357.4913254654666,
      "perigee_km": 355.35108286818377,
      "latitude_deg": -5.285355334979148e-06,
      "longitude_deg": -139.18736856915444,
      "height_km": 356.9199692538058,
      "semi_major_axis_km": 6734.558204166825,
      "eccentricity": 0.0001589,
      "inclination_deg": 42.9977,
      "raan_deg": 278.9484,
      "arg_perigee_deg": 227.2145,
      "mean_anomaly_deg": 132.8589,
      "mean_motion_rev_day": 15.70865841
    },
    {
      "epoch": "2026-04-02T18:40:37.911648Z",
      "apogee_km": 357.30249773862397,
      "perigee_km": 355.31044935914815,
      "latitude_deg": -1.1833506181071452e-05,
      "longitude_deg": 160.7689209244408,
      "height_km": 356.05886669193484,
      "semi_major_axis_km": 6734.443473548886,
      "eccentricity": 0.0001479,
      "inclination_deg": 43.0006,
      "raan_deg": 272.0489,
      "arg_perigee_deg": 271.1612,
      "mean_anomaly_deg": 88.9086,
      "mean_motion_rev_day": 15.70905984
    },
    {
      "epoch": "2026-04-02T18:40:37.912512Z",
      "apogee_km": 357.3027671163627,
      "perigee_km": 355.3101799814094,
      "latitude_deg": -8.699345716218144e-06,
      "longitude_deg": 160.76892065662733,
      "height_km": 356.0588612349206,
      "semi_major_axis_km": 6734.443473548886,
      "eccentricity": 0.00014794,
      "inclination_deg": 43.0006,
      "raan_deg": 272.0489,
      "arg_perigee_deg": 271.1612,
      "mean_anomaly_deg": 88.9086,
      "mean_motion_rev_day": 15.70905984
    },
    {
      "epoch": "2026-04-03T19:05:37.313664Z",
      "apogee_km": 357.0679191809413,
      "perigee_km": 356.30014958302127,
      "latitude_deg": -2.926909435445995e-05,
      "longitude_deg": 147.38624397797642,
      "height_km": 356.5906298425403,
      "semi_major_axis_km": 6734.821034381981,
      "eccentricity": 5.7e-05,
      "inclination_deg": 42.9981,
      "raan_deg": 265.9165,
      "arg_perigee_deg": 249.3875,
      "mean_anomaly_deg": 110.6931,
      "mean_motion_rev_day": 15.70773886
    },
    {
      "epoch": "2026-04-04T19:30:34.377696Z",
      "apogee_km": 357.1456503285117,
      "perigee_km": 355.71926851700573,
      "latitude_deg": -4.8963702284791836e-05,
      "longitude_deg": 134.01333201608054,
      "height_km": 356.31423282300585,
      "semi_major_axis_km": 6734.569459422758,
      "eccentricity": 0.0001059,
      "inclination_deg": 43.0003,
      "raan_deg": 259.7841,
      "arg_perigee_deg": 261.1594,
      "mean_anomaly_deg": 98.9153,
      "mean_motion_rev_day": 15.70861903
    },
    {
      "epoch": "2026-04-05T10:46:10.160544Z",
      "apogee_km": 357.51381107606903,
      "perigee_km": 354.7681112657401,
      "latitude_deg": -3.46363127897393e-06,
      "longitude_deg": -99.34541910115854,
      "height_km": 356.82431805471117,
      "semi_major_axis_km": 6734.277961170904,
      "eccentricity": 0.00020386,
      "inclination_deg": 42.9981,
      "raan_deg": 255.9511,
      "arg_perigee_deg": 228.4169,
      "mean_anomaly_deg": 131.6524,
      "mean_motion_rev_day": 15.70963898
    },
    {
      "epoch": "2026-04-05T19:55:31.291392Z",
      "apogee_km": 357.74439403376255,
      "perigee_km": 354.6762253994557,
      "latitude_deg": 7.818364328240276e-06,
      "longitude_deg": 120.64272883957139,
      "height_km": 355.90962702714467,
      "semi_major_axis_km": 6734.347309716609,
      "eccentricity": 0.0002278,
      "inclination_deg": 43.0007,
      "raan_deg": 253.6533,
      "arg_perigee_deg": 272.7606,
      "mean_anomaly_deg": 87.3001,
      "mean_motion_rev_day": 15.70939632
    },
    {
      "epoch": "2026-04-05T19:55:31.292256Z",
      "apogee_km": 357.74405731639763,
      "perigee_km": 354.6765621168215,
      "latitude_deg": 3.891200525183138e-06,
      "longitude_deg": 120.64272104210544,
      "height_km": 355.9096432417662,
      "semi_major_axis_km": 6734.347309716609,
      "eccentricity": 0.00022775,
      "inclination_deg": 43.0007,
      "raan_deg": 253.6533,
      "arg_perigee_deg": 272.7606,
      "mean_anomaly_deg": 87.3001,
      "mean_motion_rev_day": 15.70939632
    },
    {
      "epoch": "2026-04-07T10:04:30.215424Z",
      "apogee_km": 357.4672739827665,
      "perigee_km": 354.92533253411784,
      "latitude_deg": 3.7751786886427634e-06,
      "longitude_deg": -102.75134884065679,
      "height_km": 356.1985364818175,
      "semi_major_axis_km": 6734.333303258441,
      "eccentricity": 0.00018873,
      "inclination_deg": 42.999,
      "raan_deg": 244.0715,
      "arg_perigee_deg": 259.5934,
      "mean_anomaly_deg": 100.4721,
      "mean_motion_rev_day": 15.70944533
    },
    {
      "epoch": "2026-04-07T17:42:18.313344Z",
      "apogee_km": 358.1468756467002,
      "perigee_km": 354.6839687911943,
      "latitude_deg": -1.306232098585468e-05,
      "longitude_deg": 140.56737019060986,
      "height_km": 356.24785078245463,
      "semi_major_axis_km": 6734.552422218947,
      "eccentricity": 0.0002571,
      "inclination_deg": 43.0015,
      "raan_deg": 242.154,
      "arg_perigee_deg": 268.0492,
      "mean_anomaly_deg": 92.0081,
      "mean_motion_rev_day": 15.70867864
    },
    {
      "epoch": "2026-04-08T10:29:27.826368Z",
      "apogee_km": 359.14109493157866,
      "perigee_km": 353.56762988005084,
      "latitude_deg": 2.569911515485535e-05,
      "longitude_deg": -116.12660372693335,
      "height_km": 355.2121393379336,
      "semi_major_axis_km": 6734.4913624058145,
      "eccentricity": 0.0004138,
      "inclination_deg": 42.9991,
      "raan_deg": 237.939,
      "arg_perigee_deg": 289.1977,
      "mean_anomaly_deg": 70.8443,
      "mean_motion_rev_day": 15.70889228
    },
    {
      "epoch": "2026-04-09T20:03:46.389312Z",
      "apogee_km": 358.5265599336253,
      "perigee_km": 354.00346616558,
      "latitude_deg": 5.3864192964080496e-05,
      "longitude_deg": 90.48683075255141,
      "height_km": 355.6958957493563,
      "semi_major_axis_km": 6734.402013049602,
      "eccentricity": 0.00033582,
      "inclination_deg": 43.0015,
      "raan_deg": 229.5085,
      "arg_perigee_deg": 278.7266,
      "mean_anomaly_deg": 81.3222,
      "mean_motion_rev_day": 15.70920491
    },
    {
      "epoch": "2026-04-11T16:19:00.686784Z",
      "apogee_km": 358.10047301609484,
      "perigee_km": 354.40598653603956,
      "latitude_deg": -2.3767207826485213e-05,
      "longitude_deg": 133.74472522377025,
      "height_km": 355.99916901636203,
      "semi_major_axis_km": 6734.390229776067,
      "eccentricity": 0.0002743,
      "inclination_deg": 43.0013,
      "raan_deg": 218.3935,
      "arg_perigee_deg": 270.8576,
      "mean_anomaly_deg": 89.1977,
      "mean_motion_rev_day": 15.70924614
    }
  ]
}